IRIDIUM 106             
1 41917U 17003A   24099.96687816  .00000172  00000+0  54415-4 0  9990
2 41917  86.3955  62.5122 0002371  78.5004 281.6457 14.34219018378650
IRIDIUM 103             
1 41918U 17003B   24100.16350030  .00000308  00000+0  10297-3 0  9991
2 41918  86.3958  62.3320 0002547  91.1337 269.0151 14.34220243378717
IRIDIUM 109             
1 41919U 17003C   24099.96053481  .00000231  00000+0  75499-4 0  9998
2 41919  86.3957  62.4631 0002252  94.4179 265.7274 14.34218213378641
IRIDIUM 102             
1 41920U 17003D   24100.13812832  .00000169  00000+0  53194-4 0  9993
2 41920  86.3957  62.3294 0002231  90.1619 269.9832 14.34216630378755
IRIDIUM 105             
1 41921U 17003E   24100.52741590  .00000402  00000+0  13649-3 0  9999
2 41921  86.4017  30.5927 0002220  84.2956 275.8492 14.34212370380668
IRIDIUM 104             
1 41922U 17003F   24100.15082453  .00000285  00000+0  94841-4 0  9998
2 41922  86.3956  62.3545 0002322  91.8610 268.2852 14.34219899378748
IRIDIUM 114             
1 41923U 17003G   24099.94784922  .00000095  00000+0  26882-4 0  9992
2 41923  86.3958  62.4256 0002256  80.8811 279.2640 14.34217459378699
IRIDIUM 108             
1 41924U 17003H   24100.32498207  .00000027  00000+0  27576-5 0  9993
2 41924  86.4013  30.6064 0002332  80.3729 279.7730 14.34216705380629
